[Satellite]
VERSION=1.1
NAME=STARLINK-5123
NICKNAME=STARLINK-5123
TLE1=1 53979U 22125R   22296.91667824 -.00133538  00000+0 -95851-3 0  9994
TLE2=2 53979  53.2191   2.7580 0002725  12.8463 265.5709 15.73283579  1306
STATUS=0
